COSMOS 2433 (720)       
1 32275U 07052A   24347.06787509 -.00000046  00000+0  00000+0 0  9994
2 32275  65.8641 334.4521 0005579 258.1470 101.8032  2.13103897133293
COSMOS 2432 (719)       
1 32276U 07052B   24349.25813549 -.00000061  00000+0  00000+0 0  9999
2 32276  65.8783 334.4960 0011715 313.4525 232.4432  2.13103077133377
COSMOS 2434 (721)       
1 32393U 07065A   24349.35113949  .00000093  00000+0  00000+0 0  9995
2 32393  64.3153 210.4767 0004557  71.7948 131.7576  2.13101278132087
COSMOS 2436 (723)       
1 32395U 07065C   24350.08012933  .00000086  00000+0  00000+0 0  9992
2 32395  64.3241 210.5184 0017486   8.4331 169.0005  2.13100051132033
COSMOS 2456 (730)       
1 36111U 09070A   24350.29133596 -.00000032  00000+0  00000+0 0  9994
2 36111  64.7010  89.7453 0002964 296.6542  62.8935  2.13103515116768
COSMOS 2457 (733)       
1 36112U 09070B   24349.18243763 -.00000036  00000+0  00000+0 0  9993
2 36112  64.6854  89.6381 0005204 160.7261 200.5853  2.13100950116751
COSMOS 2460 (732)       
1 36402U 10007C   24349.18729774 -.00000062  00000+0  00000+0 0  9997
2 36402  65.7160 333.0151 0002915 279.8438  79.4481  2.13106100115099
COSMOS 2476 (744)       
1 37867U 11064A   24350.35301990 -.00000030  00000+0  00000+0 0  9999
2 37867  64.9708  91.4454 0023574 233.6981  84.5408  2.13101455102113
COSMOS 2477 (745)       
1 37868U 11064B   24349.99828134 -.00000031  00000+0  00000+0 0  9993
2 37868  64.9776  91.5315 0020708 234.2413 350.8822  2.13102834102042
COSMOS 2475 (743)       
1 37869U 11064C   24349.75049384 -.00000033  00000+0  00000+0 0  9992
2 37869  64.9843  91.5564 0025367 249.3559 103.2641  2.13101490102055
COSMOS 2485 (747)       
1 39155U 13019A   24346.12552409 -.00000014  00000+0  00000+0 0  9998
2 39155  65.1246  92.2094 0023973 229.3626 130.4223  2.13104250 90494
COSMOS 2492 (754)       
1 39620U 14012A   24348.42723709 -.00000058  00000+0  00000+0 0  9995
2 39620  65.5968 332.5916 0014689 312.3825  47.4977  2.13103065 83507
COSMOS 2500 (755)       
1 40001U 14032A   24349.07349419 -.00000062  00000+0  00000+0 0  9991
2 40001  65.5333 332.3608 0007934 223.1373 136.8025  2.13105887 81730
COSMOS 2501 (702K)      
1 40315U 14075A   24350.26738376  .00000084  00000+0  00000+0 0  9996
2 40315  63.6163 209.3877 0019116 204.2520 155.7482  2.13101357 78155
COSMOS 2514 (751)       
1 41330U 16008A   24349.78102360 -.00000065  00000+0  00000+0 0  9995
2 41330  65.3263 331.8005 0011989 223.1781 136.7267  2.13102465 68910
COSMOS 2522 (752)       
1 42939U 17055A   24349.15152087  .00000094  00000+0  00000+0 0  9997
2 42939  64.0775 210.6207 0005993 229.2854 130.7556  2.13101886 56259
COSMOS 2527 (756)       
1 43508U 18053A   24350.04947370 -.00000030  00000+0  00000+0 0  9997
2 43508  65.2858  92.2669 0008776 224.6862 135.2367  2.13102213 50577
COSMOS 2529 (757)       
1 43687U 18086A   24349.20964562  .00000093  00000+0  00000+0 0  9997
2 43687  64.2932 211.1799 0007124 260.4030  99.6098  2.13101949 47568
COSMOS 2534 (758)       
1 44299U 19030A   24349.27827080  .00000093  00000+0  00000+0 0  9997
2 44299  64.3664 211.1479 0009370 288.1987 258.6940  2.13101932 43201
COSMOS 2544 (759)       
1 44850U 19088A   24349.52442257 -.00000032  00000+0  00000+0 0  9994
2 44850  65.2725  92.1182 0013430 250.0497 109.7976  2.13101912 38988
COSMOS 2545 (760)       
1 45358U 20018A   24349.25189470 -.00000064  00000+0  00000+0 0  9993
2 45358  64.6654 331.6824 0011856 252.0278 107.8433  2.13102411 36945
COSMOS 2547 (705K)      
1 46805U 20075A   24348.96913330  .00000095  00000+0  00000+0 0  9994
2 46805  64.5958 210.8532 0005900 232.8820 127.1573  2.13102769 32183
COSMOS 2557 (706K)      
1 52984U 22075A   24350.07369884 -.00000067  00000+0  00000+0 0  9995
2 52984  64.5966 333.7670 0014089 278.9932  80.8476  2.13101846 19006
COSMOS 2559 (707K)      
1 54031U 22130A   24347.67086904 -.00000054  00000+0  00000+0 0  9999
2 54031  64.5698 333.9627 0007966 235.1667 124.7680  2.13101188 16936
COSMOS 2564 (761)       
1 54377U 22161A   24349.26879689  .00000093  00000+0  00000+0 0  9995
2 54377  64.7372 210.9804 0008026 207.4176 152.6331  2.13102028 15910
COSMOS 2569 (703K)      
1 57517U 23114A   24349.75385337 -.00000033  00000+0  00000+0 0  9994
2 57517  65.0019  91.1946 0010195 289.2306  70.6530  2.13104069 10552
